NORAD_CAT_ID,OBJECT_NAME,OBJECT_TYPE,EPOCH,MEAN_MOTION,ECCENTRICITY,INCLINATION,RA_OF_ASC_NODE,ARG_OF_PERICENTER,MEAN_ANOMALY,BSTAR,MEAN_MOTION_DOT,MEAN_MOTION_DDOT,TLE_LINE0,TLE_LINE1,TLE_LINE2,SEMIMAJOR_AXIS,PERIOD,APOGEE,PERIGEE,DECAYED
51724.0,STARLINK-3529,PAYLOAD,2023-11-07 00:06:17,15.08794077,0.0001276,53.217,201.4622,95.8885,264.2253,-0.0012275,-0.00019746,0.0,0 STARLINK-3529,1 51724U 22016L   23311.00436487 -.00019746  00000-0 -12275-2 0  9990,2 51724  53.2170 201.4622 0001276  95.8885 264.2253 15.08794077 95607,6918.021,95.44,540.769,539.003,0.0
51724.0,STARLINK-3529,PAYLOAD,2023-11-07 09:38:37,15.08796943,0.0001436,53.2169,199.6782,101.3195,258.7959,-0.00072597,-0.00011809,0.0,0 STARLINK-3529,1 51724U 22016L   23311.40181718 -.00011809  00000-0 -72597-3 0  9994,2 51724  53.2169 199.6782 0001436 101.3195 258.7959 15.08796943 95666,6918.012,95.44,540.87,538.884,0.0
51724.0,STARLINK-3529,PAYLOAD,2023-11-08 01:32:28,15.08822332,0.0001433,53.2163,196.7056,117.7407,242.3731,8.9948e-06,-1.45e-06,0.0,0 STARLINK-3529,1 51724U 22016L   23312.06422079 -.00000145  00000-0  89948-5 0  9995,2 51724  53.2163 196.7056 0001433 117.7407 242.3731 15.08822332 95766,6917.934,95.439,540.791,538.808,0.0
51724.0,STARLINK-3529,PAYLOAD,2023-11-08 19:01:43,15.08836607,0.0001051,53.2167,193.4379,88.2353,271.876,0.00071729,0.00011145,0.0,0 STARLINK-3529,1 51724U 22016L   23312.79286632  .00011145  00000-0  71729-3 0  9995,2 51724  53.2167 193.4379 0001051  88.2353 271.8760 15.08836607 95871,6917.891,95.438,540.483,539.029,0.0
51724.0,STARLINK-3529,PAYLOAD,2023-11-08 22:12:29,15.08843916,0.0001335,53.2166,192.8408,109.2778,250.8359,0.0010133,0.00015877,0.0,0 STARLINK-3529,1 51724U 22016L   23312.92534144  .00015877  00000-0  10133-2 0  9991,2 51724  53.2166 192.8408 0001335 109.2778 250.8359 15.08843916 94833,6917.868,95.437,540.657,538.81,0.0
51724.0,STARLINK-3529,PAYLOAD,2023-11-09 01:23:15,15.08848706,0.0001335,53.2167,192.2457,108.9556,251.1581,0.00098711,0.0001546,0.0,0 STARLINK-3529,1 51724U 22016L   23313.05781922  .00015460  00000-0  98711-3 0  9991,2 51724  53.2167 192.2457 0001335 108.9556 251.1581 15.08848706 95915,6917.854,95.437,540.642,538.795,0.0
51724.0,STARLINK-3529,PAYLOAD,2023-11-09 22:03:16,15.0884784,0.0001331,53.2163,188.3788,111.8495,248.2639,0.00019205,2.771e-05,0.0,0 STARLINK-3529,1 51724U 22016L   23313.91893937  .00002771  00000-0  19205-3 0  9998,2 51724  53.2163 188.3788 0001331 111.8495 248.2639 15.08847840 94980,6917.856,95.437,540.642,538.801,0.0
51724.0,STARLINK-3529,PAYLOAD,2023-11-10 01:14:02,15.08850085,0.0001427,53.2169,187.7827,111.5223,248.5922,0.00020735,3.014e-05,0.0,0 STARLINK-3529,1 51724U 22016L   23314.05141763  .00003014  00000-0  20735-3 0  9998,2 51724  53.2169 187.7827 0001427 111.5223 248.5922 15.08850085 96069,6917.85,95.437,540.702,538.727,0.0
51724.0,STARLINK-3529,PAYLOAD,2023-11-10 09:10:58,15.08847423,0.0001409,53.2164,186.2947,111.8766,248.2376,0.00011813,1.593e-05,0.0,0 STARLINK-3529,1 51724U 22016L   23314.38261728  .00001593  00000-0  11813-3 0  9995,2 51724  53.2164 186.2947 0001409 111.8766 248.2376 15.08847423 95056,6917.858,95.437,540.697,538.748,0.0
51724.0,STARLINK-3529,PAYLOAD,2023-11-10 20:18:39,15.08856584,0.0001382,53.2172,184.2139,110.2946,249.8195,-3.0269e-05,-7.7e-06,0.0,0 STARLINK-3529,1 51724U 22016L   23314.84628862 -.00000770  00000-0 -30269-4 0  9997,2 51724  53.2172 184.2139 0001382 110.2946 249.8195 15.08856584 95121,6917.83,95.437,540.651,538.739,0.0
51724.0,STARLINK-3529,PAYLOAD,2023-11-11 09:01:44,15.08847473,0.0001477,53.2172,181.8337,108.6824,251.4328,-8.1952e-05,-1.592e-05,0.0,0 STARLINK-3529,1 51724U 22016L   23315.37620842 -.00001592  00000-0 -81952-4 0  9994,2 51724  53.2172 181.8337 0001477 108.6824 251.4328 15.08847473 96265,6917.858,95.437,540.744,538.701,0.0
51724.0,STARLINK-3529,PAYLOAD,2023-11-11 20:09:26,15.08841491,0.0001615,53.2169,179.752,109.6598,250.4569,4.3402e-05,4.03e-06,0.0,0 STARLINK-3529,1 51724U 22016L   23315.83989365  .00000403  00000-0  43402-4 0  9999,2 51724  53.2169 179.7520 0001615 109.6598 250.4569 15.08841491 96332,6917.876,95.437,540.858,538.624,0.0
51724.0,STARLINK-3529,PAYLOAD,2023-11-11 21:44:50,15.08839025,0.0001571,53.2171,179.4553,106.2965,253.82,-6.2868e-06,-3.88e-06,0.0,0 STARLINK-3529,1 51724U 22016L   23315.90613450 -.00000388  00000-0 -62868-5 0  9998,2 51724  53.2171 179.4553 0001571 106.2965 253.8200 15.08839025 95282,6917.883,95.438,540.835,538.662,0.0
51724.0,STARLINK-3529,PAYLOAD,2023-11-12 20:00:13,15.08846467,0.0001486,53.2174,175.2944,101.1683,258.9476,8.8258e-05,1.117e-05,0.0,0 STARLINK-3529,1 51724U 22016L   23316.83349037  .00001117  00000-0  88258-4 0  9997,2 51724  53.2174 175.2944 0001486 101.1683 258.9476 15.08846467 95424,6917.861,95.437,540.754,538.698,0.0
51724.0,STARLINK-3529,PAYLOAD,2023-11-13 00:46:23,15.08812744,0.0001805,53.2178,174.3999,109.7601,250.3586,0.00061,9.426e-05,0.0,0 STARLINK-3529,1 51724U 22016L   23317.03222132  .00009426  00000-0  61000-3 0  9992,2 51724  53.2178 174.3999 0001805 109.7601 250.3586 15.08812744 96517,6917.964,95.439,541.077,538.58,0.0
51724.0,STARLINK-3529,PAYLOAD,2023-11-13 07:07:55,15.08846546,0.0001454,53.2173,173.2118,101.2117,258.9038,4.5396e-05,4.35e-06,0.0,0 STARLINK-3529,1 51724U 22016L   23317.29716946  .00000435  00000-0  45396-4 0  9993,2 51724  53.2173 173.2118 0001454 101.2117 258.9038 15.08846546 96559,6917.86,95.437,540.731,538.72,0.0
51724.0,STARLINK-3529,PAYLOAD,2023-11-14 06:58:42,15.08839529,0.0001511,53.2173,168.7514,75.0665,285.0494,7.1329e-05,8.47e-06,0.0,0 STARLINK-3529,1 51724U 22016L   23318.29077489  .00000847  00000-0  71329-4 0  9998,2 51724  53.2173 168.7514 0001511  75.0665 285.0494 15.08839529 96705,6917.882,95.438,540.792,538.702,0.0
51724.0,STARLINK-3529,PAYLOAD,2023-11-14 21:17:11,15.08839749,0.000186,53.2174,166.0781,105.5538,254.566,-1.7323e-06,-3.16e-06,0.0,0 STARLINK-3529,1 51724U 22016L   23318.88693715 -.00000316  00000-0 -17323-5 0  9997,2 51724  53.2174 166.0781 0001860 105.5538 254.5660 15.08839749 95730,6917.881,95.438,541.033,538.459,0.0
51724.0,STARLINK-3529,PAYLOAD,2023-11-15 22:43:20,15.08845626,0.0001468,53.218,161.3205,90.2909,269.8251,7.347e-05,8.82e-06,0.0,0 STARLINK-3529,1 51724U 22016L   23319.94677076  .00000882  00000-0  73470-4 0  9997,2 51724  53.2180 161.3205 0001468  90.2909 269.8251 15.08845626 96953,6917.863,95.437,540.744,538.713,0.0
51724.0,STARLINK-3529,PAYLOAD,2023-11-16 13:01:49,15.08839077,0.0001974,53.221,158.6461,94.2753,265.8465,9.4961e-05,1.223e-05,0.0,0 STARLINK-3529,1 51724U 22016L   23320.54293697  .00001223  00000-0  94961-4 0  9996,2 51724  53.2210 158.6461 0001974  94.2753 265.8465 15.08839077 95981,6917.883,95.438,541.114,538.383,0.0
51724.0,STARLINK-3529,PAYLOAD,2023-11-16 19:23:22,15.08838252,0.0001917,53.2194,157.4553,91.507,268.6142,9.41e-05,1.21e-05,0.0,0 STARLINK-3529,1 51724U 22016L   23320.80789796  .00001210  00000-0  94100-4 0  9996,2 51724  53.2194 157.4553 0001917  91.5070 268.6142 15.08838252 97080,6917.886,95.438,541.077,538.425,0.0
51724.0,STARLINK-3529,PAYLOAD,2023-11-17 12:52:36,15.08838244,0.0001436,53.2164,154.1823,90.4599,269.6558,8.0966e-05,1.001e-05,0.0,0 STARLINK-3529,1 51724U 22016L   23321.53653655  .00001001  00000-0  80966-4 0  9994,2 51724  53.2164 154.1823 0001436  90.4599 269.6558 15.08838244 96139,6917.886,95.438,540.744,538.757,0.0
51724.0,STARLINK-3529,PAYLOAD,2023-11-17 19:14:09,15.08839951,0.0001431,53.2161,152.9927,91.0582,269.0574,8.8672e-05,1.124e-05,0.0,0 STARLINK-3529,1 51724U 22016L   23321.80149544  .00001124  00000-0  88672-4 0  9999,2 51724  53.2161 152.9927 0001431  91.0582 269.0574 15.08839951 96173,6917.881,95.438,540.735,538.756,0.0
51724.0,STARLINK-3529,PAYLOAD,2023-11-18 12:43:24,15.08832849,0.0001459,53.2163,149.7229,86.3498,273.7661,2.5201e-05,1.13e-06,0.0,0 STARLINK-3529,1 51724U 22016L   23322.53014374  .00000113  00000-0  25201-4 0  9998,2 51724  53.2163 149.7229 0001459  86.3498 273.7661 15.08832849 97345,6917.902,95.438,540.777,538.758,0.0
51724.0,STARLINK-3529,PAYLOAD,2023-11-18 19:04:57,15.08832334,0.0001462,53.2163,148.5334,86.3678,273.7481,1.5626e-05,-3.9e-07,0.0,0 STARLINK-3529,1 51724U 22016L   23322.79510529 -.00000039  00000-0  15626-4 0  9997,2 51724  53.2163 148.5334 0001462  86.3678 273.7481 15.08832334 96329,6917.904,95.438,540.78,538.757,0.0
51724.0,STARLINK-3529,PAYLOAD,2023-11-19 18:55:44,15.08838223,0.0001446,53.2169,144.0729,87.0066,273.1092,3.2006e-05,2.21e-06,0.0,0 STARLINK-3529,1 51724U 22016L   23323.78870407  .00000221  00000-0  32006-4 0  9994,2 51724  53.2169 144.0729 0001446  87.0066 273.1092 15.08838223 97534,6917.886,95.438,540.751,538.75,0.0
51724.0,STARLINK-3529,PAYLOAD,2023-11-19 22:06:30,15.08837428,0.0001483,53.2167,143.4783,87.5511,272.5651,4.1214e-05,3.68e-06,0.0,0 STARLINK-3529,1 51724U 22016L   23323.92118411  .00000368  00000-0  41214-4 0  9993,2 51724  53.2167 143.4783 0001483  87.5511 272.5651 15.08837428 96490,6917.888,95.438,540.779,538.727,0.0
51724.0,STARLINK-3529,PAYLOAD,2023-11-20 12:24:58,15.08836921,0.0001455,53.217,140.8018,87.105,273.0109,0.00011097,1.478e-05,0.0,0 STARLINK-3529,1 51724U 22016L   23324.51734436  .00001478  00000-0  11097-3 0  9998,2 51724  53.2170 140.8018 0001455  87.1050 273.0109 15.08836921 96580,6917.89,95.438,540.761,538.748,0.0
51724.0,STARLINK-3529,PAYLOAD,2023-11-20 18:46:30,15.08840758,0.0001405,53.2166,139.6123,86.2601,273.8551,0.00014505,2.021e-05,0.0,0 STARLINK-3529,1 51724U 22016L   23324.78230186  .00002021  00000-0  14505-3 0  9992,2 51724  53.2166 139.6123 0001405  86.2601 273.8551 15.08840758 96622,6917.878,95.438,540.715,538.771,0.0
51724.0,STARLINK-3529,PAYLOAD,2023-11-21 10:40:22,15.08845723,0.0001368,53.2165,136.6385,84.6372,275.4776,0.00010531,1.389e-05,0.0,0 STARLINK-3529,1 51724U 22016L   23325.44470026  .00001389  00000-0  10531-3 0  9996,2 51724  53.2165 136.6385 0001368  84.6372 275.4776 15.08845723 97785,6917.863,95.437,540.674,538.782,0.0
